0 FENGYUN 1C DEB
1 29998U 99025LY  13281.91130314  .00001457  00000-0  77799-3 0   584
2 29998 099.2872 043.0188 0005030 266.3357 093.7239 14.14940711347616
0 FENGYUN 1C DEB
1 29998U 99025LY  13287.14406628  .00001506  00000-0  80318-3 0   608
2 29998 099.2881 048.4625 0005364 251.4152 108.6437 14.14955333348353
0 FENGYUN 1C DEB
1 29998U 99025LY  13289.26543858  .00001599  00000-0  85129-3 0   618
2 29998 099.2884 050.6698 0005509 246.2275 113.8320 14.14965678348655
0 FENGYUN 1C DEB
1 29998U 99025LY  13291.31608499  .00001793  00000-0  95145-3 0   626
2 29998 099.2884 052.8035 0005636 240.8234 119.2375 14.14971279348946
0 FENGYUN 1C DEB
1 29998U 99025LY  13293.79099112  .00001954  00000-0  10345-2 0   634
2 29998 099.2883 055.3787 0005755 234.2911 125.7725 14.14980902349291
0 FENGYUN 1C DEB
1 29998U 99025LY  13295.84161484  .00001975  00000-0  10449-2 0   643
2 29998 099.2882 057.5124 0005835 229.3182 130.7483 14.14989773349587
